FLOCK 4G-13             
1 62621U 25009N   26068.70638971  .00053076  00000+0  16695-2 0  9995
2 62621  97.4019 151.0918 0003801 292.7207  67.3633 15.32770015 63700
STARLINK-35869          
1 66353U 25254F   26068.70856174  .00024403  00000+0  83328-3 0  9990
2 66353  53.1608 232.0034 0001024  79.2346 280.8770 15.30203013 18986
